RANGE-A                 
1 43773U 18099R   26068.70590171  .00005536  00000+0  32166-3 0  9992
2 43773  97.4107 114.1927 0009674 340.4473  19.6386 15.12458640397457
STARLINK-4729           
1 53804U 22111AH  26068.71746098 -.00000037  00000+0  15780-4 0  9996
2 53804  53.2158 258.7790 0001326  89.1228 270.9916 15.08837677193892
